STARLETTE               
1 07646U 75010A   09172.22168784 -.00000181  00000-0 -27930-4 0  9776
2 07646  49.8216 114.9753 0205954  86.1382 276.3029 13.82271502736240
LAGEOS 1                
1 08820U 76039A   09170.58263785  .00000021  00000-0  10000-3 0  7966
2 08820 109.8190 213.2298 0044800 191.4204 168.5567  6.38664650517197
EGP                     
1 16908U 86061A   09171.89830802 -.00000083  00000-0  10000-3 0  9380
2 16908  50.0066 147.5917 0011380 226.2842 133.7050 12.44462697708061
LAGEOS 2                
1 22195U 92070B   09171.08711770 -.00000009  00000-0  10000-3 0    69
2 22195  52.6477 229.0434 0136925 354.0997   5.7953  6.47294275393852
STELLA                  
1 22824U 93061B   09172.16951854  .00000100  00000-0  58045-4 0  3031
2 22824  98.4757 120.3704 0005583 296.6663  63.3951 14.27284737819758
WESTPAC                 
1 25398U 98043E   09171.98854801 -.00000065  00000-0 -10738-4 0  5534
2 25398  98.3268 192.9992 0001396 160.5769 199.5466 14.22675425568556
GRACE 1                 
1 27391U 02012A   09172.11007340  .00000490  00000-0  13655-4 0  2240
2 27391  89.0152   2.4642 0019340  89.3133 271.0379 15.34213927405916
GRACE 2                 
1 27392U 02012B   09171.58794644  .00000173  00000-0  41198-5 0  2232
2 27392  89.0139   2.5484 0020137  93.2621 267.0935 15.34210455405836
